[{"OBJECT_NAME":"NUSAT-35 (WILLIAMINA)","OBJECT_ID":"2023-001AR","EPOCH":"2026-03-09T22:28:40.425600","MEAN_MOTION":15.3245616,"ECCENTRICITY":0.00136635,"INCLINATION":97.1993,"RA_OF_ASC_NODE":124.278,"ARG_OF_PERICENTER":97.0313,"MEAN_ANOMALY":263.2484,"EPHEMERIS_TYPE":0,"CLASSIFICATION_TYPE":"U","NORAD_CAT_ID":55048,"ELEMENT_SET_NO":999,"REV_AT_EPOCH":17719,"BSTAR":0.00053479647,"MEAN_MOTION_DOT":0.0001675,"MEAN_MOTION_DDOT":0},{"OBJECT_NAME":"STARLINK-34442","OBJECT_ID":"2025-139J","EPOCH":"2026-03-09T13:03:58.038336","MEAN_MOTION":15.30154393,"ECCENTRICITY":0.00013466,"INCLINATION":53.1601,"RA_OF_ASC_NODE":127.5866,"ARG_OF_PERICENTER":68.2314,"MEAN_ANOMALY":291.883,"EPHEMERIS_TYPE":0,"CLASSIFICATION_TYPE":"U","NORAD_CAT_ID":64672,"ELEMENT_SET_NO":999,"REV_AT_EPOCH":4026,"BSTAR":0.00054284387,"MEAN_MOTION_DOT":0.0001573,"MEAN_MOTION_DDOT":0}]
